[{"OBJECT_NAME":"HIBARI","OBJECT_ID":"2021-102F","EPOCH":"2026-03-09T16:55:51.090816","MEAN_MOTION":15.29554512,"ECCENTRICITY":0.00120742,"INCLINATION":97.3381,"RA_OF_ASC_NODE":115.826,"ARG_OF_PERICENTER":186.5211,"MEAN_ANOMALY":173.5875,"EPHEMERIS_TYPE":0,"CLASSIFICATION_TYPE":"U","NORAD_CAT_ID":49400,"ELEMENT_SET_NO":999,"REV_AT_EPOCH":23897,"BSTAR":0.00042758039,"MEAN_MOTION_DOT":0.00012206,"MEAN_MOTION_DDOT":0},{"OBJECT_NAME":"STARLINK-31639","OBJECT_ID":"2024-050H","EPOCH":"2026-03-09T13:55:05.200320","MEAN_MOTION":15.30184742,"ECCENTRICITY":0.0001337,"INCLINATION":53.1601,"RA_OF_ASC_NODE":181.3682,"ARG_OF_PERICENTER":90.9679,"MEAN_ANOMALY":269.1475,"EPHEMERIS_TYPE":0,"CLASSIFICATION_TYPE":"U","NORAD_CAT_ID":59261,"ELEMENT_SET_NO":999,"REV_AT_EPOCH":11053,"BSTAR":1.0806e-5,"MEAN_MOTION_DOT":-3.9e-7,"MEAN_MOTION_DDOT":0}]
